*******************************************************************************
Ephemeris / WWW_USER Mon Mar 24 08:10:26 2025 Pasadena, USA      / Horizons    
*******************************************************************************
Target body name: (2018 VC)                       {source: JPL#21}
Center body name: Earth (399)                     {source: DE441}
Center-site name: Mauna Kea
*******************************************************************************
Start time      : A.D. 2018-Dec-24 03:59:00.0000 UT      
Stop  time      : A.D. 2018-Dec-24 16:43:00.0000 UT      
Step-size       : 1 minutes
*******************************************************************************
Target pole/equ : undefined
Target radii    : undefined                                                    
Center geodetic : 204.5278, 19.8260847, 4.21024   {E-lon(deg),Lat(deg),Alt(km)}
Center cylindric: 204.5278, 6006.35451, 2151.0229 {E-lon(deg),Dxy(km),Dz(km)}
Center pole/equ : ITRF93                          {East-longitude positive}
Center radii    : 6378.137, 6378.137, 6356.752 km {Equator_a, b, pole_c}       
Target primary  : Sun
Vis. interferer : MOON (R_eq= 1737.400) km        {source: DE441}
Rel. light bend : Sun                             {source: DE441}
Rel. lght bnd GM: 1.3271E+11 km^3/s^2                                          
Small-body perts: Yes                             {source: SB441-N16}
Atmos refraction: NO (AIRLESS)
RA format       : HMS
Time format     : CAL 
Calendar mode   : Mixed Julian/Gregorian
RTS-only print  : NO       
EOP file        : eop.250321.p250617                                           
EOP coverage    : DATA-BASED 1962-JAN-20 TO 2025-MAR-21. PREDICTS-> 2025-JUN-16
Units conversion: 1 au= 149597870.700 km, c= 299792.458 km/s, 1 day= 86400.0 s 
Table cut-offs 1: Elevation (-90.0deg=NO ),Airmass (>38.000=NO), Daylight (YES)
Table cut-offs 2: Solar elongation (  0.0,180.0=NO ),Local Hour Angle( 0.0=NO )
Table cut-offs 3: RA/DEC angular rate (     0.0=NO )                           
*******************************************************************************
Initial IAU76/J2000 heliocentric ecliptic osculating elements (au, days, deg.):
  EPOCH=  2458962.5 ! 2020-Apr-23.00 (TDB)         Residual RMS= .087367       
   EC= .1691367762722357   QR= .9358500167919792   TP= 2458809.0997793972      
   OM= 36.58853997425776   W=  304.3228784920618   IN= 3.701146998496158       
  Equivalent ICRF heliocentric cartesian coordinates (au, au/d):
   X=-6.479543737333916E-01  Y= 9.538692942598190E-01  Z= 5.016232001756915E-01
  VX=-1.316843360643849E-02 VY=-5.467047892625660E-03 VZ=-2.149198049185293E-03
Asteroid physical parameters (km, seconds, rotational period in hours):        
   GM= n.a.                RAD= n.a.               ROTPER= n.a.                
   H= 26.34                G= .150                 B-V= n.a.                   
                           ALBEDO= n.a.            STYP= n.a.                  
*******************************************************************************
 Date__(UT)__HR:MN     R.A._________(ICRF)_________DEC
******************************************************
$$SOE
 2018-Dec-24 10:08  m  03 08 37.787331 +34 21 49.70678
 2018-Dec-24 10:09  m  03 08 37.838763 +34 21 49.45681
 2018-Dec-24 10:10  m  03 08 37.890238 +34 21 49.20653
 2018-Dec-24 10:11  m  03 08 37.941757 +34 21 48.95592
 2018-Dec-24 10:12  m  03 08 37.993319 +34 21 48.70500
 2018-Dec-24 10:13  m  03 08 38.044925 +34 21 48.45376
 2018-Dec-24 10:14  m  03 08 38.096576 +34 21 48.20221
 2018-Dec-24 10:15  m  03 08 38.148270 +34 21 47.95034
 2018-Dec-24 10:16  m  03 08 38.200009 +34 21 47.69816
 2018-Dec-24 10:17  m  03 08 38.251793 +34 21 47.44567
 2018-Dec-24 10:18  m  03 08 38.303622 +34 21 47.19287
 2018-Dec-24 10:19  m  03 08 38.355495 +34 21 46.93977
 2018-Dec-24 10:20  m  03 08 38.407414 +34 21 46.68635
 2018-Dec-24 10:21  m  03 08 38.459379 +34 21 46.43263
 2018-Dec-24 10:22  m  03 08 38.511389 +34 21 46.17861
 2018-Dec-24 10:23  m  03 08 38.563445 +34 21 45.92428
 2018-Dec-24 10:24  m  03 08 38.615547 +34 21 45.66965
 2018-Dec-24 10:25  m  03 08 38.667695 +34 21 45.41473
 2018-Dec-24 10:26  m  03 08 38.719890 +34 21 45.15950
 2018-Dec-24 10:27  m  03 08 38.772131 +34 21 44.90398
 2018-Dec-24 10:28  m  03 08 38.824419 +34 21 44.64816
 2018-Dec-24 10:29  m  03 08 38.876753 +34 21 44.39205
 2018-Dec-24 10:30  m  03 08 38.929135 +34 21 44.13565
 2018-Dec-24 10:31  m  03 08 38.981565 +34 21 43.87895
 2018-Dec-24 10:32  m  03 08 39.034041 +34 21 43.62196
 2018-Dec-24 10:33  m  03 08 39.086566 +34 21 43.36469
 2018-Dec-24 10:34  m  03 08 39.139138 +34 21 43.10713
 2018-Dec-24 10:35  m  03 08 39.191759 +34 21 42.84928
 2018-Dec-24 10:36  m  03 08 39.244427 +34 21 42.59115
 2018-Dec-24 10:37  m  03 08 39.297144 +34 21 42.33274
 2018-Dec-24 10:38  m  03 08 39.349910 +34 21 42.07404
 2018-Dec-24 10:39  m  03 08 39.402724 +34 21 41.81507
 2018-Dec-24 10:40  m  03 08 39.455587 +34 21 41.55582
 2018-Dec-24 10:41  m  03 08 39.508500 +34 21 41.29629
 2018-Dec-24 10:42  m  03 08 39.561462 +34 21 41.03648
 2018-Dec-24 10:43  m  03 08 39.614473 +34 21 40.77641
 2018-Dec-24 10:44  m  03 08 39.667533 +34 21 40.51606
 2018-Dec-24 10:45  m  03 08 39.720644 +34 21 40.25544
 2018-Dec-24 10:46  m  03 08 39.773804 +34 21 39.99455
 2018-Dec-24 10:47  m  03 08 39.827015 +34 21 39.73339
 2018-Dec-24 10:48  m  03 08 39.880276 +34 21 39.47196
 2018-Dec-24 10:49  m  03 08 39.933587 +34 21 39.21028
 2018-Dec-24 10:50  m  03 08 39.986949 +34 21 38.94833
 2018-Dec-24 10:51  m  03 08 40.040362 +34 21 38.68611
 2018-Dec-24 10:52  m  03 08 40.093826 +34 21 38.42364
 2018-Dec-24 10:53  m  03 08 40.147340 +34 21 38.16091
 2018-Dec-24 10:54  m  03 08 40.200906 +34 21 37.89792
 2018-Dec-24 10:55  m  03 08 40.254524 +34 21 37.63468
 2018-Dec-24 10:56  m  03 08 40.308193 +34 21 37.37118
 2018-Dec-24 10:57  m  03 08 40.361914 +34 21 37.10743
 2018-Dec-24 10:58  m  03 08 40.415687 +34 21 36.84343
 2018-Dec-24 10:59  m  03 08 40.469512 +34 21 36.57918
 2018-Dec-24 11:00  m  03 08 40.523389 +34 21 36.31469
 2018-Dec-24 11:01  m  03 08 40.577318 +34 21 36.04995
 2018-Dec-24 11:02  m  03 08 40.631300 +34 21 35.78496
 2018-Dec-24 11:03  m  03 08 40.685335 +34 21 35.51973
 2018-Dec-24 11:04  m  03 08 40.739423 +34 21 35.25426
 2018-Dec-24 11:05  m  03 08 40.793563 +34 21 34.98855
 2018-Dec-24 11:06  m  03 08 40.847757 +34 21 34.72260
 2018-Dec-24 11:07  m  03 08 40.902004 +34 21 34.45642
 2018-Dec-24 11:08  m  03 08 40.956304 +34 21 34.19000
 2018-Dec-24 11:09  m  03 08 41.010658 +34 21 33.92335
 2018-Dec-24 11:10  m  03 08 41.065066 +34 21 33.65647
 2018-Dec-24 11:11  m  03 08 41.119528 +34 21 33.38936
 2018-Dec-24 11:12  m  03 08 41.174043 +34 21 33.12201
 2018-Dec-24 11:13  m  03 08 41.228613 +34 21 32.85445
 2018-Dec-24 11:14  m  03 08 41.283237 +34 21 32.58666
 2018-Dec-24 11:15  m  03 08 41.337916 +34 21 32.31864
 2018-Dec-24 11:16  m  03 08 41.392649 +34 21 32.05040
 2018-Dec-24 11:17  m  03 08 41.447437 +34 21 31.78195
 2018-Dec-24 11:18  m  03 08 41.502279 +34 21 31.51327
 2018-Dec-24 11:19  m  03 08 41.557177 +34 21 31.24438
 2018-Dec-24 11:20  m  03 08 41.612130 +34 21 30.97528
 2018-Dec-24 11:21  m  03 08 41.667138 +34 21 30.70596
 2018-Dec-24 11:22  m  03 08 41.722201 +34 21 30.43643
 2018-Dec-24 11:23  m  03 08 41.777320 +34 21 30.16669
 2018-Dec-24 11:24  m  03 08 41.832495 +34 21 29.89674
 2018-Dec-24 11:25  m  03 08 41.887726 +34 21 29.62658
 2018-Dec-24 11:26  m  03 08 41.943012 +34 21 29.35622
 2018-Dec-24 11:27  m  03 08 41.998354 +34 21 29.08566
 2018-Dec-24 11:28  m  03 08 42.053753 +34 21 28.81490
 2018-Dec-24 11:29  m  03 08 42.109208 +34 21 28.54393
 2018-Dec-24 11:30  m  03 08 42.164719 +34 21 28.27277
 2018-Dec-24 11:31  m  03 08 42.220287 +34 21 28.00141
 2018-Dec-24 11:32  m  03 08 42.275912 +34 21 27.72986
 2018-Dec-24 11:33  m  03 08 42.331593 +34 21 27.45811
 2018-Dec-24 11:34  m  03 08 42.387331 +34 21 27.18618
 2018-Dec-24 11:35  m  03 08 42.443127 +34 21 26.91405
 2018-Dec-24 11:36  m  03 08 42.498979 +34 21 26.64174
 2018-Dec-24 11:37  m  03 08 42.554889 +34 21 26.36924
 2018-Dec-24 11:38  m  03 08 42.610856 +34 21 26.09655
 2018-Dec-24 11:39  m  03 08 42.666881 +34 21 25.82369
 2018-Dec-24 11:40  m  03 08 42.722963 +34 21 25.55064
 2018-Dec-24 11:41  m  03 08 42.779103 +34 21 25.27742
 2018-Dec-24 11:42  m  03 08 42.835301 +34 21 25.00401
 2018-Dec-24 11:43  m  03 08 42.891557 +34 21 24.73043
 2018-Dec-24 11:44  m  03 08 42.947870 +34 21 24.45668
 2018-Dec-24 11:45  m  03 08 43.004242 +34 21 24.18276
 2018-Dec-24 11:46  m  03 08 43.060673 +34 21 23.90867
 2018-Dec-24 11:47  m  03 08 43.117161 +34 21 23.63440
 2018-Dec-24 11:48  m  03 08 43.173709 +34 21 23.35997
 2018-Dec-24 11:49  m  03 08 43.230314 +34 21 23.08538
 2018-Dec-24 11:50  m  03 08 43.286979 +34 21 22.81062
 2018-Dec-24 11:51  m  03 08 43.343702 +34 21 22.53571
 2018-Dec-24 11:52  m  03 08 43.400484 +34 21 22.26063
 2018-Dec-24 11:53  m  03 08 43.457325 +34 21 21.98539
 2018-Dec-24 11:54  m  03 08 43.514226 +34 21 21.71000
 2018-Dec-24 11:55  m  03 08 43.571185 +34 21 21.43446
 2018-Dec-24 11:56  m  03 08 43.628204 +34 21 21.15876
 2018-Dec-24 11:57  m  03 08 43.685282 +34 21 20.88291
 2018-Dec-24 11:58  m  03 08 43.742419 +34 21 20.60692
 2018-Dec-24 11:59  m  03 08 43.799617 +34 21 20.33077
 2018-Dec-24 12:00  m  03 08 43.856873 +34 21 20.05449
 2018-Dec-24 12:01  m  03 08 43.914190 +34 21 19.77805
 2018-Dec-24 12:02  m  03 08 43.971566 +34 21 19.50148
 2018-Dec-24 12:03  m  03 08 44.029003 +34 21 19.22477
 2018-Dec-24 12:04  m  03 08 44.086499 +34 21 18.94792
 2018-Dec-24 12:05  m  03 08 44.144056 +34 21 18.67093
 2018-Dec-24 12:06  m  03 08 44.201672 +34 21 18.39381
 2018-Dec-24 12:07  m  03 08 44.259349 +34 21 18.11656
 2018-Dec-24 12:08  m  03 08 44.317087 +34 21 17.83917
 2018-Dec-24 12:09  m  03 08 44.374884 +34 21 17.56166
 2018-Dec-24 12:10  m  03 08 44.432743 +34 21 17.28402
